CCSDS_OMM_VERS = 2.0
CREATION_DATE  = 
ORIGINATOR     = 

OBJECT_NAME    = SL-14 R/B
OBJECT_ID      = 1991-042B
CENTER_NAME    = EARTH
REF_FRAME      = TEME
TIME_SYSTEM    = UTC
MEAN_ELEMENT_THEORY = SGP/SGP4

EPOCH          = 2026-01-18T20:31:49.241856
MEAN_MOTION    = 14.81776756
ECCENTRICITY   = .00182158
INCLINATION    = 82.4925
RA_OF_ASC_NODE = 266.9229
ARG_OF_PERICENTER = 48.2346
MEAN_ANOMALY   = 312.0421

EPHEMERIS_TYPE = 0
CLASSIFICATION_TYPE = U
NORAD_CAT_ID   = 21423
ELEMENT_SET_NO = 999
REV_AT_EPOCH   = 84569
BSTAR          = .42990484E-4
MEAN_MOTION_DOT = .364E-5
MEAN_MOTION_DDOT = 0

CCSDS_OMM_VERS = 2.0
CREATION_DATE  = 
ORIGINATOR     = 

OBJECT_NAME    = ERS-1
OBJECT_ID      = 1991-050A
CENTER_NAME    = EARTH
REF_FRAME      = TEME
TIME_SYSTEM    = UTC
MEAN_ELEMENT_THEORY = SGP/SGP4

EPOCH          = 2026-01-18T22:14:40.332480
MEAN_MOTION    = 14.39398694
ECCENTRICITY   = .0031771
INCLINATION    = 98.7896
RA_OF_ASC_NODE = 35.9113
ARG_OF_PERICENTER = 351.8665
MEAN_ANOMALY   = 8.2002

EPHEMERIS_TYPE = 0
CLASSIFICATION_TYPE = U
NORAD_CAT_ID   = 21574
ELEMENT_SET_NO = 999
REV_AT_EPOCH   = 80857
BSTAR          = .11200556E-3
MEAN_MOTION_DOT = .304E-5
MEAN_MOTION_DDOT = 0

CCSDS_OMM_VERS = 2.0
CREATION_DATE  = 
ORIGINATOR     = 

OBJECT_NAME    = ARIANE 40 R/B
OBJECT_ID      = 1991-050F
CENTER_NAME    = EARTH
REF_FRAME      = TEME
TIME_SYSTEM    = UTC
MEAN_ELEMENT_THEORY = SGP/SGP4

EPOCH          = 2026-01-18T21:18:45.811008
MEAN_MOTION    = 14.42846440
ECCENTRICITY   = .0002545
INCLINATION    = 98.2110
RA_OF_ASC_NODE = 72.9688
ARG_OF_PERICENTER = 204.4833
MEAN_ANOMALY   = 155.6237

EPHEMERIS_TYPE = 0
CLASSIFICATION_TYPE = U
NORAD_CAT_ID   = 21610
ELEMENT_SET_NO = 999
REV_AT_EPOCH   = 81181
BSTAR          = .87563218E-4
MEAN_MOTION_DOT = .25E-5
MEAN_MOTION_DDOT = 0

CCSDS_OMM_VERS = 2.0
CREATION_DATE  = 
ORIGINATOR     = 

OBJECT_NAME    = INTERCOSMOS 25
OBJECT_ID      = 1991-086A
CENTER_NAME    = EARTH
REF_FRAME      = TEME
TIME_SYSTEM    = UTC
MEAN_ELEMENT_THEORY = SGP/SGP4

EPOCH          = 2026-01-18T16:56:40.725888
MEAN_MOTION    = 12.11859187
ECCENTRICITY   = .14860471
INCLINATION    = 82.6088
RA_OF_ASC_NODE = 340.2159
ARG_OF_PERICENTER = 224.6550
MEAN_ANOMALY   = 122.5052

EPHEMERIS_TYPE = 0
CLASSIFICATION_TYPE = U
NORAD_CAT_ID   = 21819
ELEMENT_SET_NO = 999
REV_AT_EPOCH   = 49063
BSTAR          = .77334426E-4
MEAN_MOTION_DOT = .396E-5
MEAN_MOTION_DDOT = 0

CCSDS_OMM_VERS = 2.0
CREATION_DATE  = 
ORIGINATOR     = 

OBJECT_NAME    = SL-8 R/B
OBJECT_ID      = 1992-008B
CENTER_NAME    = EARTH
REF_FRAME      = TEME
TIME_SYSTEM    = UTC
MEAN_ELEMENT_THEORY = SGP/SGP4

EPOCH          = 2026-01-18T21:54:10.322208
MEAN_MOTION    = 13.75966711
ECCENTRICITY   = .00333389
INCLINATION    = 82.9290
RA_OF_ASC_NODE = 304.8015
ARG_OF_PERICENTER = 274.2267
MEAN_ANOMALY   = 156.7456

EPHEMERIS_TYPE = 0
CLASSIFICATION_TYPE = U
NORAD_CAT_ID   = 21876
ELEMENT_SET_NO = 999
REV_AT_EPOCH   = 70257
BSTAR          = .66660745E-4
MEAN_MOTION_DOT = .8E-6
MEAN_MOTION_DDOT = 0

CCSDS_OMM_VERS = 2.0
CREATION_DATE  = 
ORIGINATOR     = 

OBJECT_NAME    = SL-8 R/B
OBJECT_ID      = 1992-020B
CENTER_NAME    = EARTH
REF_FRAME      = TEME
TIME_SYSTEM    = UTC
MEAN_ELEMENT_THEORY = SGP/SGP4

EPOCH          = 2026-01-18T22:45:50.627232
MEAN_MOTION    = 13.75539163
ECCENTRICITY   = .00301905
INCLINATION    = 82.9298
RA_OF_ASC_NODE = 190.6856
ARG_OF_PERICENTER = 77.3432
MEAN_ANOMALY   = 33.5702

EPHEMERIS_TYPE = 0
CLASSIFICATION_TYPE = U
NORAD_CAT_ID   = 21938
ELEMENT_SET_NO = 999
REV_AT_EPOCH   = 69429
BSTAR          = .16471835E-3
MEAN_MOTION_DOT = .175E-5
MEAN_MOTION_DDOT = 0

CCSDS_OMM_VERS = 2.0
CREATION_DATE  = 
ORIGINATOR     = 

OBJECT_NAME    = USA 81
OBJECT_ID      = 1992-023A
CENTER_NAME    = EARTH
REF_FRAME      = TEME
TIME_SYSTEM    = UTC
MEAN_ELEMENT_THEORY = SGP/SGP4

EPOCH          = 2026-01-18T22:04:26.661792
MEAN_MOTION    = 14.32343509
ECCENTRICITY   = .00018659
INCLINATION    = 85.0106
RA_OF_ASC_NODE = 160.1353
ARG_OF_PERICENTER = 117.2274
MEAN_ANOMALY   = 242.9109

EPHEMERIS_TYPE = 0
CLASSIFICATION_TYPE = U
NORAD_CAT_ID   = 21949
ELEMENT_SET_NO = 999
REV_AT_EPOCH   = 8766
BSTAR          = .58123706E-4
MEAN_MOTION_DOT = .177E-5
MEAN_MOTION_DDOT = 0

CCSDS_OMM_VERS = 2.0
CREATION_DATE  = 
ORIGINATOR     = 

OBJECT_NAME    = COSMOS 2219
OBJECT_ID      = 1992-076A
CENTER_NAME    = EARTH
REF_FRAME      = TEME
TIME_SYSTEM    = UTC
MEAN_ELEMENT_THEORY = SGP/SGP4

EPOCH          = 2026-01-18T17:18:19.843200
MEAN_MOTION    = 14.14081238
ECCENTRICITY   = .00208045
INCLINATION    = 71.0617
RA_OF_ASC_NODE = 122.5292
ARG_OF_PERICENTER = 276.2593
MEAN_ANOMALY   = 83.6160

EPHEMERIS_TYPE = 0
CLASSIFICATION_TYPE = U
NORAD_CAT_ID   = 22219
ELEMENT_SET_NO = 999
REV_AT_EPOCH   = 71131
BSTAR          = -.27790909E-4
MEAN_MOTION_DOT = -.1E-5
MEAN_MOTION_DDOT = 0

CCSDS_OMM_VERS = 2.0
CREATION_DATE  = 
ORIGINATOR     = 

OBJECT_NAME    = SL-16 R/B
OBJECT_ID      = 1992-076B
CENTER_NAME    = EARTH
REF_FRAME      = TEME
TIME_SYSTEM    = UTC
MEAN_ELEMENT_THEORY = SGP/SGP4

EPOCH          = 2026-01-18T23:57:15.331968
MEAN_MOTION    = 14.16850372
ECCENTRICITY   = .00127298
INCLINATION    = 71.0011
RA_OF_ASC_NODE = 293.0488
ARG_OF_PERICENTER = 181.8657
MEAN_ANOMALY   = 259.0953

EPHEMERIS_TYPE = 0
CLASSIFICATION_TYPE = U
NORAD_CAT_ID   = 22220
ELEMENT_SET_NO = 999
REV_AT_EPOCH   = 71479
BSTAR          = -.4745757E-5
MEAN_MOTION_DOT = -.57E-6
MEAN_MOTION_DDOT = 0

CCSDS_OMM_VERS = 2.0
CREATION_DATE  = 
ORIGINATOR     = 

OBJECT_NAME    = COSMOS 2221
OBJECT_ID      = 1992-080A
CENTER_NAME    = EARTH
REF_FRAME      = TEME
TIME_SYSTEM    = UTC
MEAN_ELEMENT_THEORY = SGP/SGP4

EPOCH          = 2026-01-18T22:38:49.745184
MEAN_MOTION    = 14.95942739
ECCENTRICITY   = .00148458
INCLINATION    = 82.5060
RA_OF_ASC_NODE = 326.7125
ARG_OF_PERICENTER = 6.9658
MEAN_ANOMALY   = 353.1767

EPHEMERIS_TYPE = 0
CLASSIFICATION_TYPE = U
NORAD_CAT_ID   = 22236
ELEMENT_SET_NO = 999
REV_AT_EPOCH   = 77335
BSTAR          = .17836684E-3
MEAN_MOTION_DOT = .2026E-4
MEAN_MOTION_DDOT = 0

CCSDS_OMM_VERS = 2.0
CREATION_DATE  = 
ORIGINATOR     = 

OBJECT_NAME    = SL-16 R/B
OBJECT_ID      = 1992-093B
CENTER_NAME    = EARTH
REF_FRAME      = TEME
TIME_SYSTEM    = UTC
MEAN_ELEMENT_THEORY = SGP/SGP4

EPOCH          = 2026-01-18T16:55:05.812032
MEAN_MOTION    = 14.15439426
ECCENTRICITY   = .00039744
INCLINATION    = 71.0223
RA_OF_ASC_NODE = 109.2005
ARG_OF_PERICENTER = 351.7437
MEAN_ANOMALY   = 8.3619

EPHEMERIS_TYPE = 0
CLASSIFICATION_TYPE = U
NORAD_CAT_ID   = 22285
ELEMENT_SET_NO = 999
REV_AT_EPOCH   = 70608
BSTAR          = .177042E-3
MEAN_MOTION_DOT = .298E-5
MEAN_MOTION_DDOT = 0

CCSDS_OMM_VERS = 2.0
CREATION_DATE  = 
ORIGINATOR     = 

OBJECT_NAME    = COSMOS 2228
OBJECT_ID      = 1992-094A
CENTER_NAME    = EARTH
REF_FRAME      = TEME
TIME_SYSTEM    = UTC
MEAN_ELEMENT_THEORY = SGP/SGP4

EPOCH          = 2026-01-18T23:49:09.161760
MEAN_MOTION    = 14.96925004
ECCENTRICITY   = .00194898
INCLINATION    = 82.5188
RA_OF_ASC_NODE = 284.8906
ARG_OF_PERICENTER = 107.0223
MEAN_ANOMALY   = 253.3137

EPHEMERIS_TYPE = 0
CLASSIFICATION_TYPE = U
NORAD_CAT_ID   = 22286
ELEMENT_SET_NO = 999
REV_AT_EPOCH   = 76862
BSTAR          = .15936031E-3
MEAN_MOTION_DOT = .1863E-4
MEAN_MOTION_DDOT = 0

