SL-14 R/B               
1 21423U 91042B   26018.85543104  .00000364  00000+0  42990-4 0  9995
2 21423  82.4925 266.9229 0018215  48.2346 312.0421 14.81776756845691
ERS-1                   
1 21574U 91050A   26018.92685570  .00000304  00000+0  11201-3 0  9997
2 21574  98.7896  35.9113 0031771 351.8665   8.2002 14.39398694808579
ARIANE 40 R/B           
1 21610U 91050F   26018.88803022  .00000250  00000+0  87563-4 0  9992
2 21610  98.2110  72.9688 0002545 204.4833 155.6237 14.42846440811818
INTERCOSMOS 25          
1 21819U 91086A   26018.70602692  .00000396  00000+0  77334-4 0  9999
2 21819  82.6088 340.2159 1486047 224.6550 122.5052 12.11859187490635
SL-8 R/B                
1 21876U 92008B   26018.91261947  .00000080  00000+0  66661-4 0  9995
2 21876  82.9290 304.8015 0033338 274.2267 156.7456 13.75966711702578
SL-8 R/B                
1 21938U 92020B   26018.94850263  .00000175  00000+0  16472-3 0  9995
2 21938  82.9298 190.6856 0030190  77.3432  33.5702 13.75539163694290
USA 81                  
1 21949U 92023A   26018.91975303  .00000177  00000+0  58124-4 0  9993
2 21949  85.0106 160.1353 0001865 117.2274 242.9109 14.32343509 87668
COSMOS 2219             
1 22219U 92076A   26018.72106300 -.00000100  00000+0 -27791-4 0  9998
2 22219  71.0617 122.5292 0020804 276.2593  83.6160 14.14081238711310
SL-16 R/B               
1 22220U 92076B   26018.99809412 -.00000057  00000+0 -47458-5 0  9997
2 22220  71.0011 293.0488 0012729 181.8657 259.0953 14.16850372714799
COSMOS 2221             
1 22236U 92080A   26018.94363131  .00002026  00000+0  17837-3 0  9999
2 22236  82.5060 326.7125 0014845   6.9658 353.1767 14.95942739773350
SL-16 R/B               
1 22285U 92093B   26018.70492838  .00000298  00000+0  17704-3 0  9990
2 22285  71.0223 109.2005 0003974 351.7437   8.3619 14.15439426706083
COSMOS 2228             
1 22286U 92094A   26018.99246715  .00001863  00000+0  15936-3 0  9998
2 22286  82.5188 284.8906 0019489 107.0223 253.3137 14.96925004768620
